SENTINEL-6              
1 46984U 20086A   24053.83539787 -.00000032  00000+0  12751-3 0  9995
2 46984  66.0400  90.8576 0007846 270.6391  89.3726 12.80930957152059
